STARLINK-30377          
1 57825U 23138T   25230.42132208  .00000176  00000+0  28086-4 0  9999
2 57825  43.0020 260.1986 0001419 271.3371  88.7309 15.02534045108035
STARLINK-30422          
1 57826U 23138U   25230.42465174  .00000332  00000+0  39643-4 0  9996
2 57826  43.0017 260.2200 0001295 283.5102  76.5596 15.02535002108139
STARLINK-30402          
1 57827U 23138V   25230.42910390  .00000078  00000+0  20839-4 0  9996
2 57827  43.0016 260.2535 0001401 267.1301  92.9381 15.02526954108138
STARLINK-30411          
1 57828U 23138W   25230.49778447  .00000841  00000+0  77312-4 0  9995
2 57828  43.0026 259.8878 0001494 277.7632  82.3040 15.02536508108085
STARLINK-30418          
1 57829U 23138X   25230.35151584  .00000705  00000+0  67226-4 0  9990
2 57829  43.0016 260.5315 0001316 273.5735  86.4956 15.02534657107961
STARLINK-30285          
1 57840U 23141A   25230.46924605 -.00000311  00000+0  16256-5 0  9993
2 57840  53.1618 148.0852 0001284  87.2302 272.8846 15.30192446109210
STARLINK-30410          
1 57841U 23141B   25230.15530556  .00000410  00000+0  25958-4 0  9995
2 57841  53.1602 149.4950 0001116  96.4050 263.7078 15.30188209109166
STARLINK-30435          
1 57842U 23141C   25230.48505273 -.00000470  00000+0 -37521-5 0  9998
2 57842  53.1602 148.0236 0001194  96.6867 263.4270 15.30186044109215
STARLINK-30423          
1 57843U 23141D   25230.48926694 -.00000156  00000+0  68523-5 0  9999
2 57843  53.1610 148.0064 0001388  99.3969 260.7188 15.30188036109213
STARLINK-30292          
1 57844U 23141E   25230.49657320  .00001229  00000+0  53621-4 0  9991
2 57844  53.1596 147.5578 0001497  81.7433 278.3738 15.30195322109226
STARLINK-30416          
1 57847U 23141H   25230.47557051 -.00000288  00000+0  23894-5 0  9997
2 57847  53.1597 148.0928 0001035  95.2655 264.8464 15.30194061109213
STARLINK-30426          
1 57848U 23141J   25230.49245431 -.00004616  00000+0 -14402-3 0  9999
2 57848  53.1594 147.9892 0001213 113.3639 246.7490 15.30157281109212
STARLINK-30430          
1 57849U 23141K   25230.47241947 -.00000074  00000+0  96312-5 0  9991
2 57849  53.1609 148.1139 0000873 106.0548 254.0549 15.30182189109218
STARLINK-30425          
1 57850U 23141L   25230.49559705 -.00002206  00000+0 -62433-4 0  9995
2 57850  53.1593 148.0201 0001260  89.0060 271.1085 15.30178612109212
STARLINK-30405          
1 57851U 23141M   25230.47873238 -.00002065  00000+0 -57610-4 0  9998
2 57851  53.1596 148.0996 0001006 101.4874 258.6240 15.30197344109213
STARLINK-30431          
1 57852U 23141N   25230.50184286 -.00000488  00000+0 -43549-5 0  9995
2 57852  53.1600 147.5857 0001145  76.9280 283.1849 15.30195771109211
STARLINK-30404          
1 57853U 23141P   25230.49761631 -.00009685  00000+0 -31510-3 0  9990
2 57853  53.1608 147.5608 0001024  70.9438 289.1674 15.30220559109225
