[{"OBJECT_NAME":"STARLINK-30377","OBJECT_ID":"2023-138T","EPOCH":"2025-08-18T10:06:42.227712","MEAN_MOTION":15.02534045,"ECCENTRICITY":0.0001419,"INCLINATION":43.002,"RA_OF_ASC_NODE":260.1986,"ARG_OF_PERICENTER":271.3371,"MEAN_ANOMALY":88.7309,"EPHEMERIS_TYPE":0,"CLASSIFICATION_TYPE":"U","NORAD_CAT_ID":57825,"ELEMENT_SET_NO":999,"REV_AT_EPOCH":10803,"BSTAR":2.8086e-5,"MEAN_MOTION_DOT":1.76e-6,"MEAN_MOTION_DDOT":0},{"OBJECT_NAME":"STARLINK-30422","OBJECT_ID":"2023-138U","EPOCH":"2025-08-18T10:11:29.910336","MEAN_MOTION":15.02535002,"ECCENTRICITY":0.0001295,"INCLINATION":43.0017,"RA_OF_ASC_NODE":260.22,"ARG_OF_PERICENTER":283.5102,"MEAN_ANOMALY":76.5596,"EPHEMERIS_TYPE":0,"CLASSIFICATION_TYPE":"U","NORAD_CAT_ID":57826,"ELEMENT_SET_NO":999,"REV_AT_EPOCH":10813,"BSTAR":3.9643e-5,"MEAN_MOTION_DOT":3.32e-6,"MEAN_MOTION_DDOT":0},{"OBJECT_NAME":"STARLINK-30402","OBJECT_ID":"2023-138V","EPOCH":"2025-08-18T10:17:54.576960","MEAN_MOTION":15.02526954,"ECCENTRICITY":0.0001401,"INCLINATION":43.0016,"RA_OF_ASC_NODE":260.2535,"ARG_OF_PERICENTER":267.1301,"MEAN_ANOMALY":92.9381,"EPHEMERIS_TYPE":0,"CLASSIFICATION_TYPE":"U","NORAD_CAT_ID":57827,"ELEMENT_SET_NO":999,"REV_AT_EPOCH":10813,"BSTAR":2.0839e-5,"MEAN_MOTION_DOT":7.8e-7,"MEAN_MOTION_DDOT":0},{"OBJECT_NAME":"STARLINK-30411","OBJECT_ID":"2023-138W","EPOCH":"2025-08-18T11:56:48.578208","MEAN_MOTION":15.02536508,"ECCENTRICITY":0.0001494,"INCLINATION":43.0026,"RA_OF_ASC_NODE":259.8878,"ARG_OF_PERICENTER":277.7632,"MEAN_ANOMALY":82.304,"EPHEMERIS_TYPE":0,"CLASSIFICATION_TYPE":"U","NORAD_CAT_ID":57828,"ELEMENT_SET_NO":999,"REV_AT_EPOCH":10808,"BSTAR":7.7312e-5,"MEAN_MOTION_DOT":8.41e-6,"MEAN_MOTION_DDOT":0},{"OBJECT_NAME":"STARLINK-30418","OBJECT_ID":"2023-138X","EPOCH":"2025-08-18T08:26:10.968576","MEAN_MOTION":15.02534657,"ECCENTRICITY":0.0001316,"INCLINATION":43.0016,"RA_OF_ASC_NODE":260.5315,"ARG_OF_PERICENTER":273.5735,"MEAN_ANOMALY":86.4956,"EPHEMERIS_TYPE":0,"CLASSIFICATION_TYPE":"U","NORAD_CAT_ID":57829,"ELEMENT_SET_NO":999,"REV_AT_EPOCH":10796,"BSTAR":6.7226e-5,"MEAN_MOTION_DOT":7.05e-6,"MEAN_MOTION_DDOT":0},{"OBJECT_NAME":"STARLINK-30285","OBJECT_ID":"2023-141A","EPOCH":"2025-08-18T11:15:42.858720","MEAN_MOTION":15.30192446,"ECCENTRICITY":0.0001284,"INCLINATION":53.1618,"RA_OF_ASC_NODE":148.0852,"ARG_OF_PERICENTER":87.2302,"MEAN_ANOMALY":272.8846,"EPHEMERIS_TYPE":0,"CLASSIFICATION_TYPE":"U","NORAD_CAT_ID":57840,"ELEMENT_SET_NO":999,"REV_AT_EPOCH":10921,"BSTAR":1.6256e-6,"MEAN_MOTION_DOT":-3.11e-6,"MEAN_MOTION_DDOT":0},{"OBJECT_NAME":"STARLINK-30410","OBJECT_ID":"2023-141B","EPOCH":"2025-08-18T03:43:38.400384","MEAN_MOTION":15.30188209,"ECCENTRICITY":0.0001116,"INCLINATION":53.1602,"RA_OF_ASC_NODE":149.495,"ARG_OF_PERICENTER":96.405,"MEAN_ANOMALY":263.7078,"EPHEMERIS_TYPE":0,"CLASSIFICATION_TYPE":"U","NORAD_CAT_ID":57841,"ELEMENT_SET_NO":999,"REV_AT_EPOCH":10916,"BSTAR":2.5958e-5,"MEAN_MOTION_DOT":4.1e-6,"MEAN_MOTION_DDOT":0},{"OBJECT_NAME":"STARLINK-30435","OBJECT_ID":"2023-141C","EPOCH":"2025-08-18T11:38:28.555872","MEAN_MOTION":15.30186044,"ECCENTRICITY":0.0001194,"INCLINATION":53.1602,"RA_OF_ASC_NODE":148.0236,"ARG_OF_PERICENTER":96.6867,"MEAN_ANOMALY":263.427,"EPHEMERIS_TYPE":0,"CLASSIFICATION_TYPE":"U","NORAD_CAT_ID":57842,"ELEMENT_SET_NO":999,"REV_AT_EPOCH":10921,"BSTAR":-3.7521e-6,"MEAN_MOTION_DOT":-4.7e-6,"MEAN_MOTION_DDOT":0},{"OBJECT_NAME":"STARLINK-30423","OBJECT_ID":"2023-141D","EPOCH":"2025-08-18T11:44:32.663616","MEAN_MOTION":15.30188036,"ECCENTRICITY":0.0001388,"INCLINATION":53.161,"RA_OF_ASC_NODE":148.0064,"ARG_OF_PERICENTER":99.3969,"MEAN_ANOMALY":260.7188,"EPHEMERIS_TYPE":0,"CLASSIFICATION_TYPE":"U","NORAD_CAT_ID":57843,"ELEMENT_SET_NO":999,"REV_AT_EPOCH":10921,"BSTAR":6.8523e-6,"MEAN_MOTION_DOT":-1.56e-6,"MEAN_MOTION_DDOT":0},{"OBJECT_NAME":"STARLINK-30292","OBJECT_ID":"2023-141E","EPOCH":"2025-08-18T11:55:03.924480","MEAN_MOTION":15.30195322,"ECCENTRICITY":0.0001497,"INCLINATION":53.1596,"RA_OF_ASC_NODE":147.5578,"ARG_OF_PERICENTER":81.7433,"MEAN_ANOMALY":278.3738,"EPHEMERIS_TYPE":0,"CLASSIFICATION_TYPE":"U","NORAD_CAT_ID":57844,"ELEMENT_SET_NO":999,"REV_AT_EPOCH":10922,"BSTAR":5.3621e-5,"MEAN_MOTION_DOT":1.229e-5,"MEAN_MOTION_DDOT":0},{"OBJECT_NAME":"STARLINK-30416","OBJECT_ID":"2023-141H","EPOCH":"2025-08-18T11:24:49.292064","MEAN_MOTION":15.30194061,"ECCENTRICITY":0.0001035,"INCLINATION":53.1597,"RA_OF_ASC_NODE":148.0928,"ARG_OF_PERICENTER":95.2655,"MEAN_ANOMALY":264.8464,"EPHEMERIS_TYPE":0,"CLASSIFICATION_TYPE":"U","NORAD_CAT_ID":57847,"ELEMENT_SET_NO":999,"REV_AT_EPOCH":10921,"BSTAR":2.3894e-6,"MEAN_MOTION_DOT":-2.88e-6,"MEAN_MOTION_DDOT":0},{"OBJECT_NAME":"STARLINK-30426","OBJECT_ID":"2023-141J","EPOCH":"2025-08-18T11:49:08.052384","MEAN_MOTION":15.30157281,"ECCENTRICITY":0.0001213,"INCLINATION":53.1594,"RA_OF_ASC_NODE":147.9892,"ARG_OF_PERICENTER":113.3639,"MEAN_ANOMALY":246.749,"EPHEMERIS_TYPE":0,"CLASSIFICATION_TYPE":"U","NORAD_CAT_ID":57848,"ELEMENT_SET_NO":999,"REV_AT_EPOCH":10921,"BSTAR":-0.00014402,"MEAN_MOTION_DOT":-4.616e-5,"MEAN_MOTION_DDOT":0},{"OBJECT_NAME":"STARLINK-30430","OBJECT_ID":"2023-141K","EPOCH":"2025-08-18T11:20:17.042208","MEAN_MOTION":15.30182189,"ECCENTRICITY":8.73e-5,"INCLINATION":53.1609,"RA_OF_ASC_NODE":148.1139,"ARG_OF_PERICENTER":106.0548,"MEAN_ANOMALY":254.0549,"EPHEMERIS_TYPE":0,"CLASSIFICATION_TYPE":"U","NORAD_CAT_ID":57849,"ELEMENT_SET_NO":999,"REV_AT_EPOCH":10921,"BSTAR":9.6312e-6,"MEAN_MOTION_DOT":-7.4e-7,"MEAN_MOTION_DDOT":0},{"OBJECT_NAME":"STARLINK-30425","OBJECT_ID":"2023-141L","EPOCH":"2025-08-18T11:53:39.585120","MEAN_MOTION":15.30178612,"ECCENTRICITY":0.000126,"INCLINATION":53.1593,"RA_OF_ASC_NODE":148.0201,"ARG_OF_PERICENTER":89.006,"MEAN_ANOMALY":271.1085,"EPHEMERIS_TYPE":0,"CLASSIFICATION_TYPE":"U","NORAD_CAT_ID":57850,"ELEMENT_SET_NO":999,"REV_AT_EPOCH":10921,"BSTAR":-6.2433e-5,"MEAN_MOTION_DOT":-2.206e-5,"MEAN_MOTION_DDOT":0},{"OBJECT_NAME":"STARLINK-30405","OBJECT_ID":"2023-141M","EPOCH":"2025-08-18T11:29:22.477632","MEAN_MOTION":15.30197344,"ECCENTRICITY":0.0001006,"INCLINATION":53.1596,"RA_OF_ASC_NODE":148.0996,"ARG_OF_PERICENTER":101.4874,"MEAN_ANOMALY":258.624,"EPHEMERIS_TYPE":0,"CLASSIFICATION_TYPE":"U","NORAD_CAT_ID":57851,"ELEMENT_SET_NO":999,"REV_AT_EPOCH":10921,"BSTAR":-5.761e-5,"MEAN_MOTION_DOT":-2.065e-5,"MEAN_MOTION_DDOT":0},{"OBJECT_NAME":"STARLINK-30431","OBJECT_ID":"2023-141N","EPOCH":"2025-08-18T12:02:39.223104","MEAN_MOTION":15.30195771,"ECCENTRICITY":0.0001145,"INCLINATION":53.16,"RA_OF_ASC_NODE":147.5857,"ARG_OF_PERICENTER":76.928,"MEAN_ANOMALY":283.1849,"EPHEMERIS_TYPE":0,"CLASSIFICATION_TYPE":"U","NORAD_CAT_ID":57852,"ELEMENT_SET_NO":999,"REV_AT_EPOCH":10921,"BSTAR":-4.3549e-6,"MEAN_MOTION_DOT":-4.88e-6,"MEAN_MOTION_DDOT":0},{"OBJECT_NAME":"STARLINK-30404","OBJECT_ID":"2023-141P","EPOCH":"2025-08-18T11:56:34.049184","MEAN_MOTION":15.30220559,"ECCENTRICITY":0.0001024,"INCLINATION":53.1608,"RA_OF_ASC_NODE":147.5608,"ARG_OF_PERICENTER":70.9438,"MEAN_ANOMALY":289.1674,"EPHEMERIS_TYPE":0,"CLASSIFICATION_TYPE":"U","NORAD_CAT_ID":57853,"ELEMENT_SET_NO":999,"REV_AT_EPOCH":10922,"BSTAR":-0.0003151,"MEAN_MOTION_DOT":-9.685e-5,"MEAN_MOTION_DDOT":0}]
